[{"OBJECT_NAME":"TIANQI-23","OBJECT_ID":"2023-135C","EPOCH":"2026-03-09T20:31:13.186272","MEAN_MOTION":14.2309434,"ECCENTRICITY":0.00136094,"INCLINATION":49.9718,"RA_OF_ASC_NODE":210.4766,"ARG_OF_PERICENTER":271.4646,"MEAN_ANOMALY":88.4707,"EPHEMERIS_TYPE":0,"CLASSIFICATION_TYPE":"U","NORAD_CAT_ID":57794,"ELEMENT_SET_NO":999,"REV_AT_EPOCH":13048,"BSTAR":0.00026414029,"MEAN_MOTION_DOT":4.41e-6,"MEAN_MOTION_DDOT":0},{"OBJECT_NAME":"NOAA 16 DEB","OBJECT_ID":"2000-055MM","EPOCH":"2026-03-04T06:03:53.403552","MEAN_MOTION":14.17732833,"ECCENTRICITY":0.00514666,"INCLINATION":98.7401,"RA_OF_ASC_NODE":65.8335,"ARG_OF_PERICENTER":225.0961,"MEAN_ANOMALY":134.6031,"EPHEMERIS_TYPE":0,"CLASSIFICATION_TYPE":"U","NORAD_CAT_ID":41513,"ELEMENT_SET_NO":999,"REV_AT_EPOCH":51000,"BSTAR":0.0032664845,"MEAN_MOTION_DOT":6.704e-5,"MEAN_MOTION_DDOT":0}]
